OBJECT_NAME,OBJECT_ID,EPOCH,MEAN_MOTION,ECCENTRICITY,INCLINATION,RA_OF_ASC_NODE,ARG_OF_PERICENTER,MEAN_ANOMALY,EPHEMERIS_TYPE,CLASSIFICATION_TYPE,NORAD_CAT_ID,ELEMENT_SET_NO,REV_AT_EPOCH,BSTAR,MEAN_MOTION_DOT,MEAN_MOTION_DDOT
QIANFAN-147,2026-108C,2026-06-08T23:43:03.143712,14.11001569,.00218807,89.0113,23.1299,132.1322,228.1727,0,U,69106,999,318,-.11365915E+1,-.1904458E-1,0
QIANFAN-148,2026-108D,2026-06-09T01:14:30.024960,14.12348657,.0019139,89.0112,23.1204,132.9176,227.3620,0,U,69107,999,319,-.10959624E+1,-.1882782E-1,0
QIANFAN-149,2026-108E,2026-06-09T01:09:33.262560,14.12789051,.00191348,89.0115,23.1204,137.6686,222.5980,0,U,69108,999,319,-.10875383E+1,-.1883434E-1,0
QIANFAN-150,2026-108F,2026-06-09T00:57:05.961312,14.14016203,.00161048,89.0117,23.1200,143.1246,217.1052,0,U,69109,999,319,-.1133986E+1,-.1998996E-1,0
QIANFAN-151,2026-108G,2026-06-08T21:23:51.773280,14.14300885,.00174678,89.0115,23.1340,144.7220,215.5127,0,U,69110,999,317,-.10496162E+1,-.1869518E-1,0
QIANFAN-152,2026-108H,2026-06-09T00:39:27.360000,14.15246250,.00142124,89.0108,23.1169,153.7104,206.4808,0,U,69111,999,319,-.10911366E+1,-.1969302E-1,0
QIANFAN-153,2026-108J,2026-06-09T00:30:48.162528,14.13890541,.00183315,89.0111,23.1159,150.0804,210.1435,0,U,69112,999,319,-.9309113E+0,-.1641978E-1,0
QIANFAN-154,2026-108K,2026-06-08T22:39:14.414976,14.15440524,.00148234,89.0116,23.1234,150.3978,209.8052,0,U,69113,999,318,-.10570609E+1,-.191852E-1,0
QIANFAN-155,2026-108L,2026-06-09T00:25:44.208192,14.14761041,.0016666,89.0115,23.1163,145.3037,214.9241,0,U,69114,999,319,-.1030009E+1,-.1851283E-1,0
QIANFAN-156,2026-108M,2026-06-09T00:12:01.327680,14.15992405,.00138621,89.0118,23.1154,152.4195,207.7732,0,U,69115,999,319,-.1016594E+1,-.18674E-1,0
QIANFAN-157,2026-108N,2026-06-08T23:32:16.666080,14.16574241,.00126736,89.0115,23.1106,148.5646,211.6303,0,U,69116,999,319,-.95411346E+0,-.1757925E-1,0
QIANFAN-158,2026-108P,2026-06-09T00:02:33.408384,14.17928176,.00165522,89.0116,23.1138,164.5951,195.5745,0,U,69117,999,319,-.10992851E+1,-.2077458E-1,0
QIANFAN-159,2026-108Q,2026-06-08T23:55:36.161184,14.18833186,.00160598,89.0112,23.1124,159.1762,201.0085,0,U,69118,999,319,-.10740728E+1,-.206519E-1,0
QIANFAN-160,2026-108R,2026-06-08T23:48:47.220480,14.18756166,.00121735,89.0126,23.1132,157.7843,202.3877,0,U,69119,999,319,-.10060423E+1,-.1939842E-1,0
QIANFAN-161,2026-108S,2026-06-08T23:43:25.235328,14.18859156,.00136875,89.0123,23.1119,160.7448,199.4262,0,U,69120,999,319,-.10330986E+1,-.1992239E-1,0
QIANFAN-162,2026-108T,2026-06-08T23:40:44.904576,14.19817573,.00172478,89.0114,23.1118,148.5171,211.7055,0,U,69121,999,319,-.10810882E+1,-.2113788E-1,0
SMILE,2026-109A,2026-05-24T15:40:35.120928,14.57062785,.00091232,70.0007,229.2745,259.5159,100.4951,0,U,69123,999,80,-.42378883E-3,-.1976E-4,0
STARLINK-37726,2026-110A,2026-06-09T06:00:02.999808,15.49156010,.00015589,97.2861,356.3970,95.3350,51.3221,0,U,69124,999,438,.31291198E-3,.16945E-3,0
STARLINK-37722,2026-110B,2026-06-09T06:00:02.999808,15.49807934,.00014956,97.2854,356.5575,50.2972,115.0658,0,U,69125,999,443,-.20009154E-1,-.1014385E-1,0
STARLINK-37715,2026-110C,2026-06-09T06:00:02.999808,15.59824140,.00016506,97.2846,356.6356,102.9275,239.9775,0,U,69126,999,438,-.36167298E-1,-.2520535E-1,0
STARLINK-37706,2026-110D,2026-06-09T06:00:02.999808,15.60188134,.00016267,97.2849,356.6401,103.0177,248.7959,0,U,69127,999,438,-.35736032E-1,-.252487E-1,0
STARLINK-37723,2026-110E,2026-06-09T06:00:02.999808,15.60543553,.00016313,97.2849,356.6445,99.7488,261.8802,0,U,69128,999,438,-.35385831E-1,-.2533313E-1,0
STARLINK-37720,2026-110F,2026-06-09T06:00:02.999808,15.49173223,.00017951,97.2862,356.4161,92.0843,103.4766,0,U,69129,999,438,.1735257E-3,.9353E-4,0
STARLINK-37533,2026-110G,2026-06-09T06:00:02.999808,15.61614158,.00014762,97.2850,356.6553,90.6561,297.1718,0,U,69130,999,438,-.34102342E-1,-.2543181E-1,0
STARLINK-37530,2026-110H,2026-06-09T06:00:02.999808,15.61975200,.0001523,97.2846,356.6600,88.4706,308.3721,0,U,69131,999,438,-.33817327E-1,-.2555777E-1,0
STARLINK-37660,2026-110J,2026-06-09T06:00:02.999808,15.55175638,.00019278,97.2853,356.5890,92.1710,142.4663,0,U,69132,999,438,-.31370053E-1,-.1870951E-1,0
STARLINK-37633,2026-110K,2026-06-09T06:00:02.999808,15.56804948,.00025782,97.2846,356.5988,97.6779,163.6550,0,U,69133,999,438,-.36132846E-1,-.2279623E-1,0
STARLINK-37361,2026-110L,2026-06-09T06:00:02.999808,15.63033692,.00015265,97.2851,356.6699,77.1290,344.9004,0,U,69134,999,438,-.32180623E-1,-.2537943E-1,0
STARLINK-37372,2026-110M,2026-06-09T06:00:02.999808,15.53846967,.00019793,97.2839,356.6108,107.7959,185.6290,0,U,69135,999,438,-.47886033E-1,-.270417E-1,0
